KUIPER-00214            
1 67778U 26030Q   26062.50159173  .00024951  00000+0  69834-3 0  9996
2 67778  51.8839 248.8521 0001037 198.4167 161.6782 15.36494152  4148
KUIPER-00215            
1 67779U 26030R   26062.46426971  .00024468  00000+0  73705-3 0  9990
2 67779  51.8824 249.3454 0009818  42.6383 317.5363 15.34154836  4135
KUIPER-00218            
1 67780U 26030S   26062.52072297  .00024192  00000+0  71305-3 0  9995
2 67780  51.8824 248.9743 0006323  34.4413 325.6982 15.34875694  4144
KUIPER-00220            
1 67781U 26030T   26062.52631006  .00035380  00000+0  10494-2 0  9997
2 67781  51.8798 249.0050 0008012  40.5408 319.6173 15.34463038  4147
KUIPER-00222            
1 67782U 26030U   26062.48074126  .00057017  00000+0  17935-2 0  9995
2 67782  51.8792 249.4426 0017328  37.7050 322.5146 15.32266823  4137
KUIPER-00223            
1 67783U 26030V   26062.46731330  .00023285  00000+0  70615-3 0  9996
2 67783  51.8812 249.3620 0012154  42.7326 317.4602 15.33947754  4130
KUIPER-00225            
1 67784U 26030W   26062.51266082  .00024630  00000+0  70952-3 0  9999
2 67784  51.8805 248.9174 0003836  23.6192 336.4969 15.35595886  4143
KUIPER-00226            
1 67785U 26030X   26062.42539319  .00024481  00000+0  80181-3 0  9995
2 67785  51.8805 249.8189 0018485  55.5970 304.6758 15.31367077  4120
KUIPER-00259            
1 67786U 26030Y   26062.52263289  .00034303  00000+0  10077-2 0  9997
2 67786  51.8800 248.9813 0007811  33.9567 326.1917 15.34784132  4149
KUIPER-00260            
1 67787U 26030Z   26062.50568919  .00025367  00000+0  71753-3 0  9993
2 67787  51.8794 248.8712 0000831  66.9733 293.1341 15.36153782  4052
KUIPER-00262            
1 67788U 26030AA  26062.50255843  .00026466  00000+0  74060-3 0  9998
2 67788  51.8807 248.8536 0000633 150.8244 209.2778 15.36466735  4149
KUIPER-00266            
1 67789U 26030AB  26062.42952515 -.00010847  00000+0 -34243-3 0  9997
2 67789  51.8811 249.8434 0022599  53.8564 306.4507 15.30975633  4129
